#dP2022  4 18  0  0  0.00000000      96 __u+U ITR00 EXT  IAC
## 2206  86400.00000000   900.00000000 59687 0.0000000000000
+  117   C06C07C08C09C10C11C12C13C14C16C19C20C21C22C23C24C25
+        C26C27C28C29C30C32C33C34C35C36C37C38C39C40C41C42C43
+        C44C45C46E01E02E03E04E05E07E08E09E10E11E12E13E14E15
+        E18E19E21E24E25E26E27E30E31E33E34E36G01G02G03G04G05
+        G06G07G08G09G10G11G12G13G14G15G16G17G18G19G20G21G22
+        G23G24G25G26G27G28G29G30G31G32J02J03R01R02R03R04R05
+        R07R08R09R11R12R13R14R15R17R18R19R20R21R22R24  0  0
++         8 10  9  9  9  9  8  9  8  9  8  9  8  8  9  9  9
++         9  8  8  8 10  7  8  9  9  7  7 11 10 10  9  8  8
++         9  8  9  9  8  7  8  8  8  8  8  8  8  8  8  8  8
++         8  8  7  8  8  8  7  8  8  8  7  8  8  8  9  7  8
++         7  8  8  8  8  9  8  7  9  7  7  8  8  9  8  8  9
++         7  8  8  7  8  9 10  8  7  8 11 10  8  8  9  9  9
++         7  8  8  9  9  8  7  8  8  8  8  7  8  8  9  0  0
%c M  cc GPS ccc cccc cccc cccc cccc ccccc ccccc ccccc ccccc
%c cc cc ccc ccc cccc cccc cccc cccc ccccc ccccc ccccc ccccc
%f  0.0000000  0.000000000  0.00000000000  0.000000000000000
%f  0.0000000  0.000000000  0.00000000000  0.000000000000000
%i    0    0    0    0      0      0      0      0         0
%i    0    0    0    0      0      0      0      0         0
/* IAC                                ULTRA-RAPID PREDICTION
/* S/V CLOCKS ARE ALIGNED TO GNSS TIME                      
/* G:C1WC2W R:C1PC2P E:C1XC5X C:C2IC6I J:C1CC2S             
/* PCV:IGS14_2196 OL/AL:FES2004  NONE     YN ORB:CoN CLK:CoN
*  2022 04 18  0 15  0.00000000
PC06 -18849.058633  30802.156900  21613.357364   -185.219743
PC07  -6334.796941  38895.718919  15194.551614     -6.883047
PC08  -4769.965654  20741.579898 -36379.744267    264.770602
PC09  -8896.354995  29323.123710  29097.320367   -706.155663
PC10   -191.553356  41553.181099   8772.515836    135.873472
PC11 -23894.947542  14226.127198   2539.432547    298.233397
PC12 -21383.180481    487.763528  17958.555910   -627.168710
PC13   4972.039563  24945.650455 -33423.429942    -57.709878
PC14 -13319.947044  12529.262350 -21069.192643    459.329741
PC16 -20867.664063  30611.976349  20060.350552    120.603204
PC19   8599.644282 -21396.165999  15732.235123    877.353703
PC20  15504.903471  -3489.413356  22957.284021   -881.579101
PC21 -13491.998851 -17677.241843 -16819.667989   -131.334901
PC22  -3542.908158 -27647.179528   -944.877812   -968.645366
PC23   6910.014278  18597.230731  19625.888489   -932.424113
PC24 -25579.433146  -3116.871538  10729.945992   -954.457817
PC25 -12210.718553  11974.724064  22046.544050   -749.491927
PC26 -23582.528965 -14028.334577  -5196.425967    750.292503
PC27  15683.163865   7471.904425 -21865.973639    709.472121
PC28  -1999.158402  18767.738390 -20556.175361     56.515069
PC29  18316.087980 -19907.659545   6858.003890    542.771686
PC30  24112.294761  -8615.167449 -11137.547276    497.105693
PC32  13650.541289  17620.090123  16821.078478   -963.095494
PC33  -8496.715401  21436.006831 -15720.183656   -967.518375
PC34 -24196.212791   9348.627775  10240.353958   -423.246245
PC35   2289.279102 -19254.752718  20071.617988    233.613773
PC36  12962.699562 -11372.929755 -21918.666824   -964.082476
PC37  22604.372330  15098.295926   6275.852343   -922.354507
PC38 -13255.940362  19450.280967 -34959.262426    225.891894
PC39 -24744.875613  31118.022156  13810.529028     34.945094
PC40 -10419.872089  36267.642116  18956.301290    261.719855
PC41   3406.991783  27694.140675    577.605777   -967.194701
PC42 -15672.604258   2388.987932 -22915.699144   -952.738577
PC43 -18782.102258  19661.103908  -6227.977952   -929.342855
PC44 -15809.322585  -7206.090226  21815.666462    631.176908
PC45  -7272.843734 -18533.793869 -19563.329919    734.066940
PC46  25079.776618   1976.936485 -12037.683946   -277.523539
PE01  22037.292333  12184.639866 -15554.971859   -618.405779
PE02 -22037.688276 -12061.149168  15662.382073    293.503231
PE03 -17701.782577  -1236.328123 -23689.199586   -549.106851
PE04  18562.616708 -18628.982104  13595.933162  -1008.831984
PE05  -6406.304097 -20796.958475 -20056.338741   -189.865264
PE07  -8430.446594  27967.281761   4833.669090   -659.660448
PE08 -18333.334859  19010.330449 -13372.182497   -514.116239
PE09   8253.417320 -27975.289980  -4989.979420   -487.889707
PE10  18501.014857 -14157.478533  18255.144982   -507.371478
PE11   7646.230164 -16283.382431  23501.559198   3928.428841
PE12  25921.730458  -9871.010419  10368.531569   4657.652583
PE13  -8358.803492  16179.412129 -23330.393006    428.094299
PE14    773.210504  26529.906760 -18659.631208  -1817.776330
PE15 -25960.945881   9830.096267 -10253.786451    751.039535
PE18    135.477718 -19392.808834  13245.345541  -1552.333335
PE19  16671.068480   3928.687430  24152.625076  -3190.129230
PE21  16883.772089  24278.804320   1212.712358   -729.067181
PE24   -488.689486 -22694.278538 -19028.461873   -566.718272
PE25 -16732.856116 -24377.610456  -1477.698333   -570.776838
PE26  14995.862643  12783.679620 -22087.960015  -1042.449585
PE27   1673.947622  23213.800496  18280.883827   -278.637336
PE30 -15118.823725   7466.763554  24315.835466   -439.232193
PE31  14372.836426  -8509.346236 -24434.279202   -495.234324
PE33  28178.146956   2280.239039  -8797.775567   -457.513500
PE34 -28241.483262  -2100.069143   8604.429222   -512.593420
PE36 -13997.513359 -12987.876352  22613.907083   -361.160223
PG01  12535.240374  13278.478999 -19707.665632    382.647910
PG02  11110.783415 -14569.905175  19934.453937   -653.151477
PG03  12920.809590  23276.494760   -303.133408   -210.820917
PG04   4426.094815  17886.961480  19106.117171   -175.045151
PG05  -2150.657991 -22209.982687  14128.801904    -78.679514
PG06  24109.631551  -5987.998122   9577.735648    270.545353
PG07  24823.331269   6308.237235   8336.206803    320.474885
PG08  -2992.614521  23067.623272 -12524.876221    -64.380158
PG09  13156.643103   7874.714782  21620.213310   -343.021589
PG10 -16868.025555  -1571.831046 -20383.504300   -382.871246
PG11  11876.192248 -13061.802404  19836.568826    -38.311682
PG12  -8820.446858 -24855.268165  -3924.717397   -201.960563
PG13  12127.834165 -22644.303770  -6545.437511    296.018239
PG14  17369.105813   2795.729955 -19926.275191   -103.211939
PG15   -678.361388 -23162.949186 -13104.652252    -68.125729
PG16  -3882.697376  19635.347356  16945.851905   -492.676573
PG17  18998.013865  -9232.276552 -15707.237077    601.685903
PG18 -24481.350061  -6363.527771   8268.730124    192.878446
PG19  19671.533757 -14197.395252 -10836.550133    145.756325
PG20   5387.535665 -16643.914357  20048.065028    515.778902
PG21   1463.947424  14855.035734 -21325.183502    160.524224
PG22 -18547.706058  17139.074681  -7508.381435    245.030037
PG23 -18835.462368 -12273.677978 -14230.425697    -15.718610
PG24  -8638.854984 -14735.524199 -20720.746437    255.091566
PG25 -17269.076302 -18517.034855   8184.035366    313.336804
PG26 -11794.760649  10493.197782  21252.358462    199.379329
PG27 -12141.179364  23307.936564  -2002.512110    185.476130
PG28  13327.159646  -6463.341056 -21536.304712    370.322394
PG29 -11283.039286  -9564.314010  22006.847850   -504.202508
PG30  26686.471106    172.919604   -739.366585   -524.231474
PG31 -23093.908054   7247.899536  11328.487651   -173.867392
PG32 -18637.578452  11779.688185 -14527.343047   -107.670467
PJ02 -25085.580539  22714.273410  30088.886616     -2.803678
PJ03 -35516.185139  21515.990920  -2710.492480     -1.597225
PR01   6255.533810 -22498.413425  10254.412723      7.874937
PR02  -2323.776538 -23628.239446  -9358.819481    515.852181
PR03  -9357.989770 -10192.975364 -21391.034553     55.109995
PR04 -10794.423905   8714.158901 -21370.110014    137.225752
PR05  -6487.301486  22745.080128  -9507.923121     91.337950
PR07   9590.262359   9319.755873  21756.240526     33.984973
PR08  10903.879847  -8876.149111  21351.083949    -64.669401
PR09  13285.201755  16938.396409  13758.097746     50.348201
PR11  18267.904518   2141.648880 -17671.997743     40.940045
PR12   3351.272075 -10899.460458 -22797.151609     17.983126
PR13 -12278.185386 -16734.341766 -14848.002439    -21.028992
PR14 -21754.633599 -12944.792309   3080.178911     76.638887
PR15 -17828.243730  -1654.225143  18183.356498     96.757072
PR17 -17512.628148  -1102.166517  18532.052810    518.435350
PR18 -23569.142702   8712.916135   4217.323668    113.926742
PR19 -18473.082172  13378.433016 -11420.666578   -185.756409
PR20    283.117958  10957.472896 -23023.940514    -68.833985
PR21  18434.108725    229.068670 -17623.284436   -294.163965
PR22  23682.147391  -9034.178081  -3337.087975   -177.567578
PR24  -1427.516994 -11123.731901  22922.692090     89.577792
EOF
